[{"OBJECT_NAME":"CHINASAT 16 (SJ-13)","OBJECT_ID":"2017-018A","EPOCH":"2026-03-28T21:50:38.836608","MEAN_MOTION":1.0027273,"ECCENTRICITY":0.0004762,"INCLINATION":0.0656,"RA_OF_ASC_NODE":87.2917,"ARG_OF_PERICENTER":169.3498,"MEAN_ANOMALY":7.8215,"EPHEMERIS_TYPE":0,"CLASSIFICATION_TYPE":"U","NORAD_CAT_ID":42662,"ELEMENT_SET_NO":999,"REV_AT_EPOCH":3294,"BSTAR":0,"MEAN_MOTION_DOT":-3.72e-6,"MEAN_MOTION_DDOT":0},{"OBJECT_NAME":"KOREASAT 7","OBJECT_ID":"2017-023A","EPOCH":"2026-03-28T20:28:10.392384","MEAN_MOTION":1.0027323,"ECCENTRICITY":0.0001865,"INCLINATION":0.0252,"RA_OF_ASC_NODE":311.5969,"ARG_OF_PERICENTER":73.7502,"MEAN_ANOMALY":223.8564,"EPHEMERIS_TYPE":0,"CLASSIFICATION_TYPE":"U","NORAD_CAT_ID":42691,"ELEMENT_SET_NO":999,"REV_AT_EPOCH":3256,"BSTAR":0,"MEAN_MOTION_DOT":-3.81e-6,"MEAN_MOTION_DDOT":0},{"OBJECT_NAME":"SGDC","OBJECT_ID":"2017-023B","EPOCH":"2026-03-27T16:38:57.427872","MEAN_MOTION":1.0027026,"ECCENTRICITY":0.0002813,"INCLINATION":0.0226,"RA_OF_ASC_NODE":91.9942,"ARG_OF_PERICENTER":286.9379,"MEAN_ANOMALY":341.0555,"EPHEMERIS_TYPE":0,"CLASSIFICATION_TYPE":"U","NORAD_CAT_ID":42692,"ELEMENT_SET_NO":999,"REV_AT_EPOCH":3259,"BSTAR":0,"MEAN_MOTION_DOT":-2.68e-6,"MEAN_MOTION_DDOT":0},{"OBJECT_NAME":"GSAT-9","OBJECT_ID":"2017-024A","EPOCH":"2026-03-28T08:24:12.089952","MEAN_MOTION":1.00270547,"ECCENTRICITY":0.00025077,"INCLINATION":0.0512,"RA_OF_ASC_NODE":306.5069,"ARG_OF_PERICENTER":60.5999,"MEAN_ANOMALY":42.0127,"EPHEMERIS_TYPE":0,"CLASSIFICATION_TYPE":"U","NORAD_CAT_ID":42695,"ELEMENT_SET_NO":999,"REV_AT_EPOCH":3248,"BSTAR":0,"MEAN_MOTION_DOT":-3.06e-6,"MEAN_MOTION_DDOT":0},{"OBJECT_NAME":"INMARSAT 5-F4","OBJECT_ID":"2017-025A","EPOCH":"2026-03-28T18:28:36.566688","MEAN_MOTION":1.0027235,"ECCENTRICITY":3.87e-5,"INCLINATION":0.0236,"RA_OF_ASC_NODE":176.2487,"ARG_OF_PERICENTER":155.1294,"MEAN_ANOMALY":188.4786,"EPHEMERIS_TYPE":0,"CLASSIFICATION_TYPE":"U","NORAD_CAT_ID":42698,"ELEMENT_SET_NO":999,"REV_AT_EPOCH":3247,"BSTAR":0,"MEAN_MOTION_DOT":0,"MEAN_MOTION_DDOT":0},{"OBJECT_NAME":"SES-15","OBJECT_ID":"2017-026A","EPOCH":"2026-03-28T15:52:51.502944","MEAN_MOTION":1.00270213,"ECCENTRICITY":6.74e-5,"INCLINATION":0.0363,"RA_OF_ASC_NODE":334.2507,"ARG_OF_PERICENTER":15.7818,"MEAN_ANOMALY":305.0867,"EPHEMERIS_TYPE":0,"CLASSIFICATION_TYPE":"U","NORAD_CAT_ID":42709,"ELEMENT_SET_NO":999,"REV_AT_EPOCH":662,"BSTAR":0,"MEAN_MOTION_DOT":4.0e-7,"MEAN_MOTION_DDOT":0},{"OBJECT_NAME":"QZS-2 (MICHIBIKI-2)","OBJECT_ID":"2017-028A","EPOCH":"2026-03-28T17:50:38.534784","MEAN_MOTION":1.00255529,"ECCENTRICITY":0.074297,"INCLINATION":39.5536,"RA_OF_ASC_NODE":244.3254,"ARG_OF_PERICENTER":270.5503,"MEAN_ANOMALY":79.276,"EPHEMERIS_TYPE":0,"CLASSIFICATION_TYPE":"U","NORAD_CAT_ID":42738,"ELEMENT_SET_NO":999,"REV_AT_EPOCH":681,"BSTAR":0,"MEAN_MOTION_DOT":-2.2e-6,"MEAN_MOTION_DDOT":0},{"OBJECT_NAME":"VIASAT-2","OBJECT_ID":"2017-029A","EPOCH":"2026-03-28T19:35:15.887040","MEAN_MOTION":1.00272391,"ECCENTRICITY":4.33e-5,"INCLINATION":0.0192,"RA_OF_ASC_NODE":253.3204,"ARG_OF_PERICENTER":99.4936,"MEAN_ANOMALY":57.3073,"EPHEMERIS_TYPE":0,"CLASSIFICATION_TYPE":"U","NORAD_CAT_ID":42740,"ELEMENT_SET_NO":999,"REV_AT_EPOCH":3239,"BSTAR":0,"MEAN_MOTION_DOT":-2.85e-6,"MEAN_MOTION_DDOT":0},{"OBJECT_NAME":"EUTELSAT 172B","OBJECT_ID":"2017-029B","EPOCH":"2026-03-28T19:09:38.651328","MEAN_MOTION":1.0027085,"ECCENTRICITY":1.86e-5,"INCLINATION":0.0182,"RA_OF_ASC_NODE":161.77,"ARG_OF_PERICENTER":79.1415,"MEAN_ANOMALY":44.6829,"EPHEMERIS_TYPE":0,"CLASSIFICATION_TYPE":"U","NORAD_CAT_ID":42741,"ELEMENT_SET_NO":999,"REV_AT_EPOCH":3293,"BSTAR":0,"MEAN_MOTION_DOT":-2.6e-7,"MEAN_MOTION_DDOT":0},{"OBJECT_NAME":"GSAT-19","OBJECT_ID":"2017-031A","EPOCH":"2026-03-28T20:08:47.520960","MEAN_MOTION":1.00272563,"ECCENTRICITY":0.0004948,"INCLINATION":0.0776,"RA_OF_ASC_NODE":86.0469,"ARG_OF_PERICENTER":309.8493,"MEAN_ANOMALY":140.4172,"EPHEMERIS_TYPE":0,"CLASSIFICATION_TYPE":"U","NORAD_CAT_ID":42747,"ELEMENT_SET_NO":999,"REV_AT_EPOCH":3234,"BSTAR":0,"MEAN_MOTION_DOT":1.06e-6,"MEAN_MOTION_DDOT":0},{"OBJECT_NAME":"ECHOSTAR 21","OBJECT_ID":"2017-032A","EPOCH":"2026-03-28T20:21:38.559744","MEAN_MOTION":1.00270943,"ECCENTRICITY":0.0002576,"INCLINATION":1.7866,"RA_OF_ASC_NODE":350.4393,"ARG_OF_PERICENTER":0.6376,"MEAN_ANOMALY":150.8262,"EPHEMERIS_TYPE":0,"CLASSIFICATION_TYPE":"U","NORAD_CAT_ID":42749,"ELEMENT_SET_NO":999,"REV_AT_EPOCH":3229,"BSTAR":0,"MEAN_MOTION_DOT":4.5e-7,"MEAN_MOTION_DDOT":0},{"OBJECT_NAME":"BULGARIASAT-1","OBJECT_ID":"2017-038A","EPOCH":"2026-03-28T14:47:42.749664","MEAN_MOTION":1.00274405,"ECCENTRICITY":0.0003145,"INCLINATION":0.0336,"RA_OF_ASC_NODE":96.3506,"ARG_OF_PERICENTER":286.9464,"MEAN_ANOMALY":26.5477,"EPHEMERIS_TYPE":0,"CLASSIFICATION_TYPE":"U","NORAD_CAT_ID":42801,"ELEMENT_SET_NO":999,"REV_AT_EPOCH":3203,"BSTAR":0,"MEAN_MOTION_DOT":-8.0e-8,"MEAN_MOTION_DDOT":0},{"OBJECT_NAME":"HELLAS-SAT 3","OBJECT_ID":"2017-040A","EPOCH":"2026-03-28T20:06:17.762112","MEAN_MOTION":1.00273447,"ECCENTRICITY":0.0005341,"INCLINATION":0.074,"RA_OF_ASC_NODE":45.5706,"ARG_OF_PERICENTER":321.7998,"MEAN_ANOMALY":159.4312,"EPHEMERIS_TYPE":0,"CLASSIFICATION_TYPE":"U","NORAD_CAT_ID":42814,"ELEMENT_SET_NO":999,"REV_AT_EPOCH":3200,"BSTAR":0,"MEAN_MOTION_DOT":1.33e-6,"MEAN_MOTION_DDOT":0},{"OBJECT_NAME":"GSAT-17","OBJECT_ID":"2017-040B","EPOCH":"2026-03-28T20:21:48.502656","MEAN_MOTION":1.00270232,"ECCENTRICITY":0.0004503,"INCLINATION":0.0514,"RA_OF_ASC_NODE":74.3057,"ARG_OF_PERICENTER":225.4637,"MEAN_ANOMALY":285.4198,"EPHEMERIS_TYPE":0,"CLASSIFICATION_TYPE":"U","NORAD_CAT_ID":42815,"ELEMENT_SET_NO":999,"REV_AT_EPOCH":3198,"BSTAR":0,"MEAN_MOTION_DOT":-2.77e-6,"MEAN_MOTION_DDOT":0},{"OBJECT_NAME":"INTELSAT 35E (IS-35E)","OBJECT_ID":"2017-041A","EPOCH":"2026-03-28T18:02:39.056352","MEAN_MOTION":1.00271356,"ECCENTRICITY":0.000217,"INCLINATION":0.0026,"RA_OF_ASC_NODE":188.9481,"ARG_OF_PERICENTER":175.4222,"MEAN_ANOMALY":57.9341,"EPHEMERIS_TYPE":0,"CLASSIFICATION_TYPE":"U","NORAD_CAT_ID":42818,"ELEMENT_SET_NO":999,"REV_AT_EPOCH":3200,"BSTAR":0,"MEAN_MOTION_DOT":-2.58e-6,"MEAN_MOTION_DDOT":0},{"OBJECT_NAME":"COSMOS 2520","OBJECT_ID":"2017-046A","EPOCH":"2026-03-28T06:26:23.388000","MEAN_MOTION":1.00274842,"ECCENTRICITY":9.87e-5,"INCLINATION":0.0263,"RA_OF_ASC_NODE":116.4622,"ARG_OF_PERICENTER":321.5708,"MEAN_ANOMALY":249.2504,"EPHEMERIS_TYPE":0,"CLASSIFICATION_TYPE":"U","NORAD_CAT_ID":42907,"ELEMENT_SET_NO":999,"REV_AT_EPOCH":3158,"BSTAR":0,"MEAN_MOTION_DOT":1.17e-6,"MEAN_MOTION_DDOT":0},{"OBJECT_NAME":"TDRS 13","OBJECT_ID":"2017-047A","EPOCH":"2026-03-28T20:29:38.777856","MEAN_MOTION":1.00271719,"ECCENTRICITY":0.0011329,"INCLINATION":3.4346,"RA_OF_ASC_NODE":0.6988,"ARG_OF_PERICENTER":97.523,"MEAN_ANOMALY":23.9707,"EPHEMERIS_TYPE":0,"CLASSIFICATION_TYPE":"U","NORAD_CAT_ID":42915,"ELEMENT_SET_NO":999,"REV_AT_EPOCH":3154,"BSTAR":0,"MEAN_MOTION_DOT":-1.17e-6,"MEAN_MOTION_DDOT":0}]
