CHINASAT 16 (SJ-13)     
1 42662U 17018A   26087.91017172 -.00000372  00000+0  00000+0 0  9999
2 42662   0.0656  87.2917 0004762 169.3498   7.8215  1.00272730 32945
KOREASAT 7              
1 42691U 17023A   26087.85289806 -.00000381  00000+0  00000+0 0  9995
2 42691   0.0252 311.5969 0001865  73.7502 223.8564  1.00273230 32565
SGDC                    
1 42692U 17023B   26086.69372023 -.00000268  00000+0  00000+0 0  9995
2 42692   0.0226  91.9942 0002813 286.9379 341.0555  1.00270260 32597
GSAT-9                  
1 42695U 17024A   26087.35013993 -.00000306  00000+0  00000+0 0  9994
2 42695   0.0512 306.5069 0002507  60.5999  42.0127  1.00270547 32486
INMARSAT 5-F4           
1 42698U 17025A   26087.76986767  .00000000  00000+0  00000+0 0  9991
2 42698   0.0236 176.2487 0000387 155.1294 188.4786  1.00272350 32470
SES-15                  
1 42709U 17026A   26087.66170721  .00000040  00000+0  00000+0 0  9993
2 42709   0.0363 334.2507 0000674  15.7818 305.0867  1.00270213  6626
QZS-2 (MICHIBIKI-2)     
1 42738U 17028A   26087.74350156 -.00000220  00000+0  00000+0 0  9999
2 42738  39.5536 244.3254 0742970 270.5503  79.2760  1.00255529  6817
VIASAT-2                
1 42740U 17029A   26087.81615610 -.00000285  00000+0  00000+0 0  9991
2 42740   0.0192 253.3204 0000433  99.4936  57.3073  1.00272391 32397
EUTELSAT 172B           
1 42741U 17029B   26087.79836402 -.00000026  00000+0  00000+0 0  9996
2 42741   0.0182 161.7700 0000186  79.1415  44.6829  1.00270850 32938
GSAT-19                 
1 42747U 17031A   26087.83943890  .00000106  00000+0  00000+0 0  9998
2 42747   0.0776  86.0469 0004948 309.8493 140.4172  1.00272563 32347
ECHOSTAR 21             
1 42749U 17032A   26087.84836296  .00000045  00000+0  00000+0 0  9995
2 42749   1.7866 350.4393 0002576   0.6376 150.8262  1.00270943 32291
BULGARIASAT-1           
1 42801U 17038A   26087.61646701 -.00000008  00000+0  00000+0 0  9995
2 42801   0.0336  96.3506 0003145 286.9464  26.5477  1.00274405 32032
HELLAS-SAT 3            
1 42814U 17040A   26087.83770558  .00000133  00000+0  00000+0 0  9992
2 42814   0.0740  45.5706 0005341 321.7998 159.4312  1.00273447 32009
GSAT-17                 
1 42815U 17040B   26087.84847804 -.00000277  00000+0  00000+0 0  9993
2 42815   0.0514  74.3057 0004503 225.4637 285.4198  1.00270232 31984
INTELSAT 35E (IS-35E)   
1 42818U 17041A   26087.75184093 -.00000258  00000+0  00000+0 0  9990
2 42818   0.0026 188.9481 0002170 175.4222  57.9341  1.00271356 32004
COSMOS 2520             
1 42907U 17046A   26087.26832625  .00000117  00000+0  00000+0 0  9994
2 42907   0.0263 116.4622 0000987 321.5708 249.2504  1.00274842 31588
TDRS 13                 
1 42915U 17047A   26087.85392104 -.00000117  00000+0  00000+0 0  9993
2 42915   3.4346   0.6988 0011329  97.5230  23.9707  1.00271719 31545
